#dP2023  4 23  6  0  0.00000000      96 __u+U ITR00 EXT  IAC
## 2259  21600.00000000   900.00000000 60057 0.2500000000000
+  119   C06C07C08C09C10C11C12C13C14C16C19C20C21C22C23C24C25
+        C26C27C28C29C30C32C33C34C35C36C37C38C39C40C41C42C43
+        C44C45C46E01E02E03E04E05E07E08E10E11E12E13E14E15E18
+        E19E21E24E25E26E27E30E31E33E34E36G01G02G03G04G05G06
+        G07G08G09G10G11G12G13G14G15G16G17G18G19G20G21G22G23
+        G24G25G26G27G28G29G30G31G32J02J03J04R01R02R03R04R05
+        R07R08R09R11R12R13R14R15R16R17R18R19R20R21R22R24R25
++        10  8 10 10  9  7  9  9  8 10  9  8  7  7  9  8  7
++        10  9  8  9  8  8  8  8  9 10  8  9  9 11  9  7  9
++        10  7  8  8  8  8  7  8  6  7 11  8  8  7  7  7  7
++         8  7  7  7  8  7  8  8  8  9  9  7  8  8  7  7  7
++         7  7  7  7 10  7  8  7  8  7  8  8  7  7  7  8  7
++         7  7  7  7  7  7  8  7  7  8  8 10  8  9  9  8  9
++         7  9  8  8  8  8  8  9  7  7  8  9 10  7  7  7  8
%c M  cc GPS ccc cccc cccc cccc cccc ccccc ccccc ccccc ccccc
%c cc cc ccc ccc cccc cccc cccc cccc ccccc ccccc ccccc ccccc
%f  0.0000000  0.000000000  0.00000000000  0.000000000000000
%f  0.0000000  0.000000000  0.00000000000  0.000000000000000
%i    0    0    0    0      0      0      0      0         0
%i    0    0    0    0      0      0      0      0         0
/* IAC                                ULTRA-RAPID PREDICTION
/* S/V CLOCKS ARE ALIGNED TO GNSS TIME                      
/* G:C1WC2W R:C1PC2P E:C1XC5X C:C2IC6I J:C1CC2S             
/* PCV:IGS20_2247 OL/AL:FES2004  NONE     YN ORB:CoN CLK:CoN
*  2023 04 23 22 15  0.00000000
PC06 -15566.831278  25301.610769  29859.608185   -196.221941
PC07 -11470.514805  40423.069618   4593.579912     83.745494
PC08    896.358915  26913.227000 -32388.196511    499.550277
PC09  -4730.044930  25229.449077  33794.918144    732.905820
PC10  -5507.863147  42010.211765  -2355.861487    -40.750553
PC11  -2760.740436  16817.909065 -22039.257304    316.951600
PC12 -20427.495038  15965.904438 -10295.043859    591.805091
PC13   6998.666961  30585.920159 -27885.050423    259.491645
PC14    354.976461  27557.846323   4614.885491    163.905072
PC16 -18905.406560  24599.730871  28650.949531    100.227625
PC19  -6598.816439 -23654.355349 -13197.004803   -903.562503
PC20   4959.288393 -27267.482841   3105.803729    608.655563
PC21 -14454.734925  14680.922941 -18815.262929   -911.070984
PC22 -14949.946168  -6174.896369 -22731.570662   -521.286528
PC23  24342.494140  12070.313679  -6360.359779   -912.175263
PC24  -3345.615895  17028.477678  21836.910269   -135.431760
PC25  16302.572070  20199.773247  10209.608803    112.699300
PC26 -18554.580667   4852.773726  20267.246710   -110.556420
PC27  24896.960117 -12420.302338   2238.098822    130.047140
PC28  24358.671193   -184.273068 -13616.261746     95.904216
PC29  -9058.943910 -13302.387880  22787.377407    111.160473
PC30  11665.709125 -18764.757928  17049.002453      0.208140
PC32  14393.484051 -14661.724978  18896.145044   -573.629926
PC33   6727.640810  23696.531566  13145.662215   -875.426170
PC34 -10316.298976  18780.676664 -17879.819186    155.554425
PC35 -23970.986694    348.921867  14235.956827    640.504307
PC36 -15273.812609 -20693.439718 -10812.944680   -482.798507
PC37  19438.813814  -3386.140391 -19715.387336   -787.453064
PC38  -7831.186029  23313.263798 -34194.029683     73.763781
PC39 -23705.097548  24745.810569  24474.668886     -2.678857
PC40 -17000.040386  38091.522341   6969.649125    -21.219533
PC41  14882.637976   6917.653906  22629.264496   -889.124048
PC42  -5690.800494  26986.992973  -4307.584816   -722.996937
PC43   8244.781274  13873.831462 -22779.539966     18.126600
PC44 -24443.052831  13264.409700  -2094.599262     85.278665
PC45 -24365.930742 -11798.557216   6812.952605    -88.890864
PC46   1609.143074 -17770.957904 -21467.346936    -49.138966
PE01 -13657.169965  10324.473209  24142.414739      5.762722
PE02  13401.307844 -10834.076563 -24076.129929     34.115490
PE03  21322.869558 -19128.766007   7433.939052   -672.186344
PE04 -10207.819194  25633.469904  10736.969735   -107.177950
PE05  20145.080977  -1194.925732  21663.051847    -73.929762
PE07  -7010.010114 -17331.016736 -22934.235998    -39.881041
PE08  10427.460660 -25612.901104 -10530.143409    -72.180845
PE10   6908.939958  16278.284489 -23747.061139   -528.682185
PE11  18118.081256  14440.669209 -18447.180886   1706.028572
PE12  -4365.359227  15594.332786 -24781.757577   -510.701355
PE13 -17366.826251 -14587.713559  19012.255734    -18.783526
PE14 -20672.227003  23067.425835  -1119.737238    205.659888
PE15   4773.836262 -15447.242126  24797.257642    -16.742745
PE18  20849.464809 -13066.655603  -6800.453903   -130.790649
PE19 -21984.589051  17194.526497  -9845.698127  -2694.876259
PE21 -19085.968648  -9557.394984  20502.621179   -525.124078
PE24  13603.595773  25942.497040  -4194.768866    -60.863745
PE25  19098.391416   9902.504333 -20329.137866   -603.836699
PE26 -29177.922958  -4768.392312   1376.972261     84.051366
PE27 -14075.839008 -25580.154240   4894.567646    -32.503128
PE30   -257.835643 -26151.948299 -13889.783201   -117.289000
PE31    824.691551  26363.067674  13433.926889   -522.105338
PE33 -23900.174566   7186.074280 -15903.508268   -445.623300
PE34  23795.868476  -7310.774129  16007.932639    -41.799429
PE36  29068.461610   5199.206879  -2166.561929    -45.856137
PG01  17040.863285  13809.144629 -15560.295802    190.766751
PG02 -26353.604092  -1354.437076  -1813.383802   -603.101596
PG03  12930.090462  22155.942873   6995.817784   -321.883361
PG04   9219.363255  12299.309486  21664.340387     24.188317
PG05  -3864.780245 -24762.830285   8435.772294   -124.554897
PG06  20768.322752  -6356.316066  15418.877328    587.620515
PG07  25712.486650   7114.708447   3275.377851    194.536406
PG08  -1105.879964  20331.195429 -16910.714664   -119.179833
PG09  17001.570031   1774.965780  20267.834393   -173.711681
PG10 -13879.171418   4995.140981 -21909.580609    -34.090119
PG11   7092.425937 -13704.807868  21623.433702   -172.640199
PG12 -10069.394554 -24148.025087   4555.012441   -367.594617
PG13   9898.823265 -20890.558958 -13068.605733    510.115180
PG14  15561.471731  -1807.871406 -21450.626300     34.413041
PG15  -2163.073199 -20428.556383 -17149.302614     33.324465
PG16  -1381.730155  23901.655742  10683.990114   -506.599488
PG17  21207.418428 -11353.247650 -10947.627335    711.953632
PG18 -26223.379206  -4614.290083   -944.053243   -237.171825
PG19  20409.126830 -16492.004458  -3135.793396    307.671382
PG20   2048.840728 -20730.332412  16626.088128    437.367443
PG21   9742.756938  14641.695963 -19591.189875    154.119272
PG22 -18321.755782  19099.419650    815.607378    469.461483
PG23 -16934.114519  -7995.794020 -18888.471490     18.950511
PG24 -13555.274156 -14661.160244 -18062.869462   -163.162319
PG25 -16130.381932 -16333.128920  13273.293545    437.836193
PG26  -8895.991557  15503.913298  19425.595425    241.521315
PG27 -11056.065338  22390.256133  -8655.546025     52.319604
PG28 -21919.627078   6361.910404  13553.098837     69.534529
PG29 -14203.033724  -6291.185932  21501.578096   -596.747844
PG30  25277.037220  -1435.073638  -8352.647540   -520.877143
PG31 -15499.260469  10455.910362  18864.552506   -214.643673
PG32 -20245.189503  14215.912999  -9219.098275   -459.284463
PJ02 -25454.447035  24984.756183  27436.626781     -1.628454
PJ03 -34557.947261  17909.814720 -11544.699303      2.816646
PJ04 -21050.274384  31034.946449 -14174.284272     94.256942
PR01  -6147.938462  24746.916268    977.457951     27.238400
PR02   3174.430096  18085.840636  17725.365459    -22.920438
PR03  10988.907474   1240.016651  23040.276518     76.548751
PR04  12445.535645 -15859.110453  15669.383302    184.487464
PR05   7367.957854 -24431.139269   -246.381554    111.442649
PR07 -11148.400662   -448.403505 -22889.539036     54.461606
PR08 -12359.081436  16102.865975 -15365.437788    -70.474581
PR09 -16033.398576 -19232.605126  -4632.701834    116.360343
PR11 -12392.294179   2361.795915  22175.881710    -41.813189
PR12   2887.686504  16368.147341  19366.610705     26.683094
PR13  14939.064293  19623.472871   6495.026758    -34.299827
PR14  19289.831146  11235.332317 -12351.116353     24.590613
PR15  11703.792698  -3341.052965 -22400.824639     89.632787
PR16  -2821.440402 -16074.092922 -19585.313460     13.838743
PR17  23273.367401   -592.321309 -10382.965190    623.863215
PR18  23387.278720  -8123.829066   6271.286640     78.047378
PR19  13025.098980 -11090.388944  18917.560773   -230.163873
PR20  -9069.368911  -8347.911482  22326.599231    -91.687884
PR21 -23888.368119   1319.124361   8869.860062     -2.272994
PR22 -23234.347364   7750.804673  -7069.354418     80.653132
PR24  10125.397850   8231.770547 -21903.629954    164.423319
PR25 -23248.637491   -719.039406  10491.460865     63.637873
EOF
